NORAD_CAT_ID,OBJECT_NAME,OBJECT_TYPE,EPOCH,MEAN_MOTION,ECCENTRICITY,INCLINATION,RA_OF_ASC_NODE,ARG_OF_PERICENTER,MEAN_ANOMALY,BSTAR,MEAN_MOTION_DOT,MEAN_MOTION_DDOT,TLE_LINE0,TLE_LINE1,TLE_LINE2,SEMIMAJOR_AXIS,PERIOD,APOGEE,PERIGEE,DECAYED
50195.0,STARLINK-3266,PAYLOAD,2023-02-13 12:30:55,15.08836276,0.0001214,53.2139,227.7526,82.1427,277.9703,5.4369e-05,5.77e-06,0.0,0 STARLINK-3266,1 50195U 21125AR  23044.52147940  .00000577  00000-0  54369-4 0  9996,2 50195  53.2139 227.7526 0001214  82.1427 277.9703 15.08836276 67147,6917.892,95.438,540.597,538.917,0.0
50195.0,STARLINK-3266,PAYLOAD,2023-02-13 22:03:14,15.0884343,0.000119,53.2143,225.9674,82.3221,277.7906,9.0474e-05,1.152e-05,0.0,0 STARLINK-3266,1 50195U 21125AR  23044.91891415  .00001152  00000-0  90474-4 0  9999,2 50195  53.2143 225.9674 0001190  82.3221 277.7906 15.08843430 67203,6917.87,95.437,540.558,538.912,0.0
50195.0,STARLINK-3266,PAYLOAD,2023-02-14 12:21:42,15.08837052,0.0001223,53.2139,223.2916,86.2177,273.8955,8.5139e-05,1.067e-05,0.0,0 STARLINK-3266,1 50195U 21125AR  23045.51507809  .00001067  00000-0  85139-4 0  9994,2 50195  53.2139 223.2916 0001223  86.2177 273.8955 15.08837052 67291,6917.889,95.438,540.6,538.908,0.0
50195.0,STARLINK-3266,PAYLOAD,2023-02-14 13:57:05,15.08838099,0.0001226,53.214,222.9943,86.3545,273.7587,9.3337e-05,1.198e-05,0.0,0 STARLINK-3266,1 50195U 21125AR  23045.58131705  .00001198  00000-0  93337-4 0  9993,2 50195  53.2140 222.9943 0001226  86.3545 273.7587 15.08838099 67788,6917.886,95.438,540.599,538.903,0.0
50195.0,STARLINK-3266,PAYLOAD,2023-02-14 18:43:14,15.08843802,0.0001157,53.2142,222.1025,87.2956,272.8169,0.00013963,1.935e-05,0.0,0 STARLINK-3266,1 50195U 21125AR  23045.78003257  .00001935  00000-0  13963-3 0  9990,2 50195  53.2142 222.1025 0001157  87.2956 272.8169 15.08843802 67337,6917.869,95.437,540.534,538.933,0.0
50195.0,STARLINK-3266,PAYLOAD,2023-02-15 07:26:20,15.08835008,0.0001239,53.2141,219.7237,90.7491,269.3643,6.5556e-05,7.55e-06,0.0,0 STARLINK-3266,1 50195U 21125AR  23046.30995930  .00000755  00000-0  65556-4 0  9992,2 50195  53.2141 219.7237 0001239  90.7491 269.3643 15.08835008 67413,6917.896,95.438,540.618,538.904,0.0
50195.0,STARLINK-3266,PAYLOAD,2023-02-15 10:37:06,15.08835151,0.0001223,53.2143,219.1299,90.8738,269.2394,6.8032e-05,7.95e-06,0.0,0 STARLINK-3266,1 50195U 21125AR  23046.44243956  .00000795  00000-0  68032-4 0  9997,2 50195  53.2143 219.1299 0001223  90.8738 269.2394 15.08835151 67911,6917.895,95.438,540.606,538.914,0.0
50195.0,STARLINK-3266,PAYLOAD,2023-02-15 18:34:02,15.0884023,0.0001096,53.2148,217.6427,87.7797,272.332,0.00010538,1.39e-05,0.0,0 STARLINK-3266,1 50195U 21125AR  23046.77363587  .00001390  00000-0  10538-3 0  9995,2 50195  53.2148 217.6427 0001096  87.7797 272.3320 15.08840230 67963,6917.88,95.438,540.503,538.986,0.0
50195.0,STARLINK-3266,PAYLOAD,2023-02-16 13:38:39,15.0884211,0.0001,53.2146,214.0742,79.2835,280.827,0.00011466,1.538e-05,0.0,0 STARLINK-3266,1 50195U 21125AR  23047.56851547  .00001538  00000-0  11466-3 0  9996,2 50195  53.2146 214.0742 0001000  79.2835 280.8270 15.08842110 67604,6917.874,95.437,540.431,539.047,0.0
50195.0,STARLINK-3266,PAYLOAD,2023-02-17 10:18:40,15.08811799,8.15e-05,53.2139,210.2082,99.0643,261.0441,0.00059284,9.153e-05,0.0,0 STARLINK-3266,1 50195U 21125AR  23048.42964042  .00009153  00000-0  59284-3 0  9998,2 50195  53.2139 210.2082 0000815  99.0643 261.0441 15.08811799 68219,6917.967,95.439,540.395,539.268,0.0
50195.0,STARLINK-3266,PAYLOAD,2023-02-17 13:29:28,15.08827211,0.0001702,53.2136,209.6115,84.9388,275.1798,4.5149e-05,4.3e-06,0.0,0 STARLINK-3266,1 50195U 21125AR  23048.56213075  .00000430  00000-0  45149-4 0  9991,2 50195  53.2136 209.6115 0001702  84.9388 275.1798 15.08827211 67755,6917.919,95.438,540.962,538.607,0.0
50195.0,STARLINK-3266,PAYLOAD,2023-02-17 18:15:36,15.08835543,0.0001421,53.2151,208.7214,61.9082,298.2054,6.2094e-05,7e-06,0.0,0 STARLINK-3266,1 50195U 21125AR  23048.76084420  .00000700  00000-0  62094-4 0  9991,2 50195  53.2151 208.7214 0001421  61.9082 298.2054 15.08835543 67787,6917.894,95.438,540.742,538.776,0.0
50195.0,STARLINK-3266,PAYLOAD,2023-02-18 13:20:14,15.08834805,0.000189,53.2146,205.1526,64.9776,295.1412,4.7276e-05,4.64e-06,0.0,0 STARLINK-3266,1 50195U 21125AR  23049.55572854  .00000464  00000-0  47276-4 0  9994,2 50195  53.2146 205.1526 0001890  64.9776 295.1412 15.08834805 68382,6917.896,95.438,541.069,538.454,0.0
50195.0,STARLINK-3266,PAYLOAD,2023-02-19 03:38:42,15.0883184,0.0001502,53.2148,202.4763,88.4535,271.663,0.00027126,4.031e-05,0.0,0 STARLINK-3266,1 50195U 21125AR  23050.15188174  .00004031  00000-0  27126-3 0  9995,2 50195  53.2148 202.4763 0001502  88.4535 271.6630 15.08831840 67994,6917.905,95.438,540.809,538.731,0.0
50195.0,STARLINK-3266,PAYLOAD,2023-02-19 14:46:24,15.08839311,0.0001282,53.2145,200.3958,84.4526,275.6612,0.00020369,2.955e-05,0.0,0 STARLINK-3266,1 50195U 21125AR  23050.61556005  .00002955  00000-0  20369-3 0  9993,2 50195  53.2145 200.3958 0001282  84.4526 275.6612 15.08839311 68542,6917.882,95.438,540.634,538.861,0.0
50195.0,STARLINK-3266,PAYLOAD,2023-02-20 13:01:48,15.08838937,0.0001269,53.2146,196.2322,77.8877,282.2257,0.00010499,1.383e-05,0.0,0 STARLINK-3266,1 50195U 21125AR  23051.54292385  .00001383  00000-0  10499-3 0  9991,2 50195  53.2146 196.2322 0001269  77.8877 282.2257 15.08838937 68688,6917.884,95.438,540.627,538.871,0.0
50195.0,STARLINK-3266,PAYLOAD,2023-02-20 14:37:11,15.08839956,0.0001408,53.2147,195.9338,84.039,276.0763,8.7686e-05,1.108e-05,0.0,0 STARLINK-3266,1 50195U 21125AR  23051.60916373  .00001108  00000-0  87686-4 0  9996,2 50195  53.2147 195.9338 0001408  84.0390 276.0763 15.08839956 68211,6917.881,95.438,540.72,538.771,0.0
50195.0,STARLINK-3266,PAYLOAD,2023-02-20 19:23:20,15.0884826,0.0001259,53.2149,195.0415,87.658,272.4556,0.00011994,1.622e-05,0.0,0 STARLINK-3266,1 50195U 21125AR  23051.80787660  .00001622  00000-0  11994-3 0  9992,2 50195  53.2149 195.0415 0001259  87.6580 272.4556 15.08848260 68245,6917.855,95.437,540.591,538.849,0.0
50195.0,STARLINK-3266,PAYLOAD,2023-02-21 12:52:35,15.0884352,0.0001333,53.2148,191.7704,92.9656,267.1489,4.3937e-05,4.11e-06,0.0,0 STARLINK-3266,1 50195U 21125AR  23052.53651991  .00000411  00000-0  43937-4 0  9998,2 50195  53.2148 191.7704 0001333  92.9656 267.1489 15.08843520 68356,6917.87,95.437,540.657,538.812,0.0
50195.0,STARLINK-3266,PAYLOAD,2023-02-21 19:14:07,15.08852417,0.0001344,53.2149,190.5807,91.2377,268.8769,7.5623e-05,9.16e-06,0.0,0 STARLINK-3266,1 50195U 21125AR  23052.80147258  .00000916  00000-0  75623-4 0  9991,2 50195  53.2149 190.5807 0001344  91.2377 268.8769 15.08852417 68390,6917.842,95.437,540.637,538.778,0.0
50195.0,STARLINK-3266,PAYLOAD,2023-02-22 01:35:40,15.08838602,0.0001677,53.2137,189.3913,92.8035,267.3149,-1.3145e-06,-3.09e-06,0.0,0 STARLINK-3266,1 50195U 21125AR  23053.06644112 -.00000309  00000-0 -13145-5 0  9991,2 50195  53.2137 189.3913 0001677  92.8035 267.3149 15.08838602 68439,6917.885,95.438,540.91,538.59,0.0
50195.0,STARLINK-3266,PAYLOAD,2023-02-22 12:43:22,15.08843408,0.0001231,53.2152,187.3098,104.4476,255.6653,3.1593e-05,2.15e-06,0.0,0 STARLINK-3266,1 50195U 21125AR  23053.53011904  .00000215  00000-0  31593-4 0  9990,2 50195  53.2152 187.3098 0001231 104.4476 255.6653 15.08843408 68983,6917.87,95.437,540.587,538.883,0.0
50195.0,STARLINK-3266,PAYLOAD,2023-02-23 07:47:59,15.08840089,0.0001709,53.2167,183.744,85.4706,274.6481,7.3915e-05,8.88e-06,0.0,0 STARLINK-3266,1 50195U 21125AR  23054.32499982  .00000888  00000-0  73915-4 0  9994,2 50195  53.2167 183.7440 0001709  85.4706 274.6481 15.08840089 68627,6917.88,95.438,540.927,538.563,0.0
50195.0,STARLINK-3266,PAYLOAD,2023-02-23 12:34:09,15.08836245,0.0001173,53.2149,182.8487,94.7355,265.3771,-6.0337e-05,-1.248e-05,0.0,0 STARLINK-3266,1 50195U 21125AR  23054.52372137 -.00001248  00000-0 -60337-4 0  9995,2 50195  53.2149 182.8487 0001173  94.7355 265.3771 15.08836245 69131,6917.892,95.438,540.568,538.945,0.0
50195.0,STARLINK-3266,PAYLOAD,2023-02-23 18:55:41,15.08843732,0.00012,53.2146,181.6592,91.8127,268.3002,6.0649e-05,6.78e-06,0.0,0 STARLINK-3266,1 50195U 21125AR  23054.78867721  .00000678  00000-0  60649-4 0  9991,2 50195  53.2146 181.6592 0001200  91.8127 268.3002 15.08843732 69171,6917.869,95.437,540.564,538.904,0.0
50195.0,STARLINK-3266,PAYLOAD,2023-02-24 01:17:14,15.08833192,0.0001435,53.2143,180.4692,92.2661,267.8495,1.6422e-05,-2.7e-07,0.0,0 STARLINK-3266,1 50195U 21125AR  23055.05364462 -.00000027  00000-0  16422-4 0  9995,2 50195  53.2143 180.4692 0001435  92.2661 267.8495 15.08833192 68734,6917.901,95.438,540.759,538.773,0.0
50195.0,STARLINK-3266,PAYLOAD,2023-02-24 12:24:56,15.08837383,0.0001237,53.2147,178.3887,97.4573,262.656,0.00012046,1.63e-05,0.0,0 STARLINK-3266,1 50195U 21125AR  23055.51732407  .00001630  00000-0  12046-3 0  9991,2 50195  53.2147 178.3887 0001237  97.4573 262.6560 15.08837383 69282,6917.888,95.438,540.609,538.898,0.0
50195.0,STARLINK-3266,PAYLOAD,2023-02-24 17:11:06,15.08843809,0.0001324,53.2149,177.4963,96.3906,263.7236,0.0002146,3.129e-05,0.0,0 STARLINK-3266,1 50195U 21125AR  23055.71604180  .00003129  00000-0  21460-3 0  9994,2 50195  53.2149 177.4963 0001324  96.3906 263.7236 15.08843809 68836,6917.869,95.437,540.65,538.818,0.0
50195.0,STARLINK-3266,PAYLOAD,2023-02-25 07:29:35,15.08827644,0.0001245,53.2143,174.8213,80.0098,280.1034,6.317e-05,7.17e-06,0.0,0 STARLINK-3266,1 50195U 21125AR  23056.31221254  .00000717  00000-0  63170-4 0  9993,2 50195  53.2143 174.8213 0001245  80.0098 280.1034 15.08827644 68921,6917.918,95.438,540.644,538.922,0.0
50195.0,STARLINK-3266,PAYLOAD,2023-02-25 12:15:44,15.08826537,0.0001362,53.2143,173.9297,81.8393,278.2753,-4.4552e-06,-3.59e-06,0.0,0 STARLINK-3266,1 50195U 21125AR  23056.51093450 -.00000359  00000-0 -44552-5 0  9998,2 50195  53.2143 173.9297 0001362  81.8393 278.2753 15.08826537 69433,6917.922,95.438,540.729,538.844,0.0
